ONEWEB-0461             
1 51649U 22012AD  25138.58882636 -.00000008  00000+0 -54282-4 0  9991
2 51649  87.9053  84.4177 0002136  80.9290 279.2083 13.17649776161921
ONEWEB-0463             
1 51650U 22012AE  25138.57025682  .00000050  00000+0  95050-4 0  9995
2 51650  87.9058  84.4831 0002078  79.7123 280.4243 13.17647688161709
ONEWEB-0464             
1 51651U 22012AF  25138.49371141 -.00000547  00000+0 -16042-2 0  9996
2 51651  87.8804 114.9811 0001745  90.8183 269.3145 13.10370985157635
ONEWEB-0468             
1 51652U 22012AG  25138.50034118 -.00000590  00000+0 -17262-2 0  9992
2 51652  87.8806 114.9716 0002001  85.0769 275.0587 13.10371977157618
ONEWEB-0473             
1 51653U 22012AH  25138.48542082 -.00000263  00000+0 -79092-3 0  9991
2 51653  87.8801 114.9781 0001946  82.9781 277.1568 13.10369797157612
ONEWEB-0474             
1 51654U 22012AJ  25138.47712731  .00000165  00000+0  43766-3 0  9999
2 51654  87.8791 114.9458 0001780  84.1432 275.9898 13.10369418157606
ONEWEB-0475             
1 51655U 22012AK  25138.35427304  .00000067  00000+0  13889-3 0  9990
2 51655  87.9056  84.5058 0001518  62.1714 297.9571 13.17648653161692
ONEWEB-0490             
1 54113U 22138A   25138.58400212 -.00000005  00000+0 -43586-4 0  9997
2 54113  87.9241  23.3955 0001663  84.1796 275.9526 13.19724863124787
